{
  "type": "FeatureCollection",
  "features": [
    {
      "type": "Feature",
      "properties": {
        "norad_id": 38146,
        "name": "FENGYUN 1C DEB",
        "group": "fengyun-1c-debris",
        "lat": -10.504586141611108,
        "lon": -124.3219664944239,
        "alt_km": 630.4645933328247,
        "timestamp": "2025-12-04T03:47:54.832743+00:00",
        "meta_object_name": "FENGYUN 1C DEB",
        "meta_object_id": "1999-025EQT",
        "meta_epoch": "2025-12-03T10:45:50.404320",
        "meta_mean_motion": 14.59033464,
        "meta_eccentricity": 0.0203062,
        "meta_inclination": 99.485,
        "meta_ra_of_asc_node": 56.6441,
        "meta_arg_of_pericenter": 130.793,
        "meta_mean_anomaly": 291.7125,
        "meta_ephemeris_type": 0,
        "meta_classification_type": "U",
        "meta_norad_cat_id": 38146,
        "meta_element_set_no": 999,
        "meta_rev_at_epoch": 31744,
        "meta_bstar": 0.0015249,
        "meta_mean_motion_dot": 9.498e-05,
        "meta_mean_motion_ddot": 0,
        "tle_line1": "1 38146U 99025EQT 25337.44850005  .00009498  00000+0  15249-2 0  9995",
        "tle_line2": "2 38146  99.4850  56.6441 0203062 130.7930 291.7125 14.59033464317446"
      },
      "geometry": {
        "type": "Point",
        "coordinates": [
          -124.3219664944239,
          -10.504586141611108
        ]
      }
    },
    {
      "type": "Feature",
      "properties": {
        "norad_id": 38147,
        "name": "FENGYUN 1C DEB",
        "group": "fengyun-1c-debris",
        "lat": 17.804029964441536,
        "lon": -10.158115462503208,
        "alt_km": 792.3871904141588,
        "timestamp": "2025-12-04T03:47:54.832753+00:00",
        "meta_object_name": "FENGYUN 1C DEB",
        "meta_object_id": "1999-025EQU",
        "meta_epoch": "2025-11-29T07:18:26.920800",
        "meta_mean_motion": 14.23385127,
        "meta_eccentricity": 0.0050737,
        "meta_inclination": 98.5592,
        "meta_ra_of_asc_node": 347.8933,
        "meta_arg_of_pericenter": 338.7731,
        "meta_mean_anomaly": 21.1342,
        "meta_ephemeris_type": 0,
        "meta_classification_type": "U",
        "meta_norad_cat_id": 38147,
        "meta_element_set_no": 999,
        "meta_rev_at_epoch": 60196,
        "meta_bstar": 0.00059773367,
        "meta_mean_motion_dot": 1.331e-05,
        "meta_mean_motion_ddot": 0,
        "tle_line1": "1 38147U 99025EQU 25333.30447825  .00001331  00000+0  59773-3 0  9998",
        "tle_line2": "2 38147  98.5592 347.8933 0050737 338.7731  21.1342 14.23385127601965"
      },
      "geometry": {
        "type": "Point",
        "coordinates": [
          -10.158115462503208,
          17.804029964441536
        ]
      }
    },
    {
      "type": "Feature",
      "properties": {
        "norad_id": 38149,
        "name": "FENGYUN 1C DEB",
        "group": "fengyun-1c-debris",
        "lat": 78.5067522515971,
        "lon": -75.50303023458689,
        "alt_km": 811.4985153708922,
        "timestamp": "2025-12-04T03:47:54.832763+00:00",
        "meta_object_name": "FENGYUN 1C DEB",
        "meta_object_id": "1999-025EQW",
        "meta_epoch": "2025-12-02T05:56:21.153984",
        "meta_mean_motion": 14.25900864,
        "meta_eccentricity": 0.0077386,
        "meta_inclination": 98.3564,
        "meta_ra_of_asc_node": 328.9678,
        "meta_arg_of_pericenter": 192.0658,
        "meta_mean_anomaly": 167.8671,
        "meta_ephemeris_type": 0,
        "meta_classification_type": "U",
        "meta_norad_cat_id": 38149,
        "meta_element_set_no": 999,
        "meta_rev_at_epoch": 70338,
        "meta_bstar": 0.0002822,
        "meta_mean_motion_dot": 6.52e-06,
        "meta_mean_motion_ddot": 0,
        "tle_line1": "1 38149U 99025EQW 25336.24746706  .00000652  00000+0  28220-3 0  9994",
        "tle_line2": "2 38149  98.3564 328.9678 0077386 192.0658 167.8671 14.25900864703383"
      },
      "geometry": {
        "type": "Point",
        "coordinates": [
          -75.50303023458689,
          78.5067522515971
        ]
      }
    },
    {
      "type": "Feature",
      "properties": {
        "norad_id": 38155,
        "name": "FENGYUN 1C DEB",
        "group": "fengyun-1c-debris",
        "lat": 47.69769977945127,
        "lon": -126.57105837034521,
        "alt_km": 821.749170279295,
        "timestamp": "2025-12-04T03:47:54.832773+00:00",
        "meta_object_name": "FENGYUN 1C DEB",
        "meta_object_id": "1999-025ERC",
        "meta_epoch": "2025-11-23T23:11:37.353120",
        "meta_mean_motion": 14.24801471,
        "meta_eccentricity": 0.00959279,
        "meta_inclination": 98.4446,
        "meta_ra_of_asc_node": 233.0188,
        "meta_arg_of_pericenter": 183.3275,
        "meta_mean_anomaly": 176.7278,
        "meta_ephemeris_type": 0,
        "meta_classification_type": "U",
        "meta_norad_cat_id": 38155,
        "meta_element_set_no": 999,
        "meta_rev_at_epoch": 63508,
        "meta_bstar": 0.0025040606,
        "meta_mean_motion_dot": 6.088e-05,
        "meta_mean_motion_ddot": 0,
        "tle_line1": "1 38155U 99025ERC 25327.96640455  .00006088  00000+0  25041-2 0  9990",
        "tle_line2": "2 38155  98.4446 233.0188 0095927 183.3275 176.7278 14.24801471635087"
      },
      "geometry": {
        "type": "Point",
        "coordinates": [
          -126.57105837034521,
          47.69769977945127
        ]
      }
    },
    {
      "type": "Feature",
      "properties": {
        "norad_id": 38157,
        "name": "FENGYUN 1C DEB",
        "group": "fengyun-1c-debris",
        "lat": -23.0079158436183,
        "lon": 60.15642818721949,
        "alt_km": 736.7033173896216,
        "timestamp": "2025-12-04T03:47:54.832783+00:00",
        "meta_object_name": "FENGYUN 1C DEB",
        "meta_object_id": "1999-025ERE",
        "meta_epoch": "2025-12-03T04:54:36.988128",
        "meta_mean_motion": 14.21681086,
        "meta_eccentricity": 0.0273888,
        "meta_inclination": 99.656,
        "meta_ra_of_asc_node": 243.2583,
        "meta_arg_of_pericenter": 141.1145,
        "meta_mean_anomaly": 221.0087,
        "meta_ephemeris_type": 0,
        "meta_classification_type": "U",
        "meta_norad_cat_id": 38157,
        "meta_element_set_no": 999,
        "meta_rev_at_epoch": 76112,
        "meta_bstar": 0.00072883,
        "meta_mean_motion_dot": 2.288e-05,
        "meta_mean_motion_ddot": 0,
        "tle_line1": "1 38157U 99025ERE 25337.20459477  .00002288  00000+0  72883-3 0  9997",
        "tle_line2": "2 38157  99.6560 243.2583 0273888 141.1145 221.0087 14.21681086761125"
      },
      "geometry": {
        "type": "Point",
        "coordinates": [
          60.15642818721949,
          -23.0079158436183
        ]
      }
    },
    {
      "type": "Feature",
      "properties": {
        "norad_id": 38159,
        "name": "FENGYUN 1C DEB",
        "group": "fengyun-1c-debris",
        "lat": 65.79979817951707,
        "lon": 71.02935645880633,
        "alt_km": 888.1608290466511,
        "timestamp": "2025-12-04T03:47:54.832793+00:00",
        "meta_object_name": "FENGYUN 1C DEB",
        "meta_object_id": "1999-025ERG",
        "meta_epoch": "2025-11-26T10:28:43.302720",
        "meta_mean_motion": 14.03426914,
        "meta_eccentricity": 0.00573234,
        "meta_inclination": 99.3154,
        "meta_ra_of_asc_node": 221.7049,
        "meta_arg_of_pericenter": 25.5121,
        "meta_mean_anomaly": 334.8854,
        "meta_ephemeris_type": 0,
        "meta_classification_type": "U",
        "meta_norad_cat_id": 38159,
        "meta_element_set_no": 999,
        "meta_rev_at_epoch": 82883,
        "meta_bstar": 0.00052980182,
        "meta_mean_motion_dot": 7.94e-06,
        "meta_mean_motion_ddot": 0,
        "tle_line1": "1 38159U 99025ERG 25330.43661230  .00000794  00000+0  52980-3 0  9995",
        "tle_line2": "2 38159  99.3154 221.7049 0057323  25.5121 334.8854 14.03426914828838"
      },
      "geometry": {
        "type": "Point",
        "coordinates": [
          71.02935645880633,
          65.79979817951707
        ]
      }
    },
    {
      "type": "Feature",
      "properties": {
        "norad_id": 38163,
        "name": "FENGYUN 1C DEB",
        "group": "fengyun-1c-debris",
        "lat": -41.45404801445741,
        "lon": 22.788460632612825,
        "alt_km": 845.8602029752528,
        "timestamp": "2025-12-04T03:47:54.832803+00:00",
        "meta_object_name": "FENGYUN 1C DEB",
        "meta_object_id": "1999-025ERL",
        "meta_epoch": "2025-12-03T07:30:03.321216",
        "meta_mean_motion": 14.05878052,
        "meta_eccentricity": 0.0075533,
        "meta_inclination": 99.1289,
        "meta_ra_of_asc_node": 13.7713,
        "meta_arg_of_pericenter": 268.5534,
        "meta_mean_anomaly": 90.6979,
        "meta_ephemeris_type": 0,
        "meta_classification_type": "U",
        "meta_norad_cat_id": 38163,
        "meta_element_set_no": 999,
        "meta_rev_at_epoch": 24409,
        "meta_bstar": 0.0011812,
        "meta_mean_motion_dot": 1.936e-05,
        "meta_mean_motion_ddot": 0,
        "tle_line1": "1 38163U 99025ERL 25337.31253844  .00001936  00000+0  11812-2 0  9999",
        "tle_line2": "2 38163  99.1289  13.7713 0075533 268.5534  90.6979 14.05878052244098"
      },
      "geometry": {
        "type": "Point",
        "coordinates": [
          22.788460632612825,
          -41.45404801445741
        ]
      }
    }
  ]
}